satname,norad_id,inclination_deg,eccentricity,mean_motion_rev_per_day,perigee_km,apogee_km,l1,l2
STARLINK-1234,45190,53.0378,0.0004517,15.74230377,343.7844612134977,349.85978928724853,1 45190U 20012N   26156.51371194  .00072252  00000+0  49224-3 0  9996,2 45190  53.0378 251.9046 0004517 257.6307 102.4205 15.74230377349662
STARLINK-1269,45197,53.1563,0.0001445,15.34777387,460.5934569932533,462.5701357254011,1 45197U 20012V   26156.70685817  .00051555  00000+0  15084-2 0  9993,2 45197  53.1563 349.8199 0001445 118.6053 241.5095 15.34777387348409
STARLINK-1154,45198,53.0434,0.0001325,15.63573501,376.44936724348554,378.23956983264816,1 45198U 20012W   26156.67737859  .00042179  00000+0  44946-3 0  9996,2 45198  53.0434 305.3202 0001325 348.1110  11.9872 15.63573501348977
STARLINK-1199,45201,53.1576,0.0001759,15.34680352,460.6669445841635,463.07325908258736,1 45201U 20012Z   26156.22213388  .00049420  00000+0  14512-2 0  9999,2 45201  53.1576 336.3558 0001759 221.5145 138.5724 15.34680352348570
STARLINK-1209,45206,53.0386,0.0007267,15.65554924,366.73821220825175,376.54834286362257,1 45206U 20012AE  26156.57902441  .00048448  00000+0  47570-3 0  9997,2 45206  53.0386 266.0529 0007267 231.2892 128.7473 15.65554924348624
STARLINK-1231,45212,53.0395,0.0003301,15.27662617,480.53692629717625,485.0665180415526,1 45212U 20012AL  26156.19381632  .00036274  00000+0  13300-2 0  9992,2 45212  53.0395 331.6774 0003301  73.7256 286.4105 15.27662617348575
STARLINK-1271,45217,53.159,0.0001212,15.34970497,460.1792237046957,461.83703248374604,1 45217U 20012AR  26156.80589390  .00068692  00000+0  19893-2 0  9998,2 45217  53.1590 333.7481 0001212 236.1345 123.9543 15.34970497348666
STARLINK-1191,45222,53.1564,0.0002873,15.38836169,447.5881022285439,451.51129100442085,1 45222U 20012AW  26156.14183802  .00035926  00000+0  92729-3 0  9993,2 45222  53.1564 309.9383 0002873 196.0106 164.0808 15.38836169348944
STARLINK-1212,45223,53.0398,0.0001381,15.66915318,366.8043395272889,368.66754963458334,1 45223U 20012AX  26156.79019869  .00057788  00000+0  53629-3 0  9992,2 45223  53.0398 280.6420 0001381 111.6300 248.4862 15.66915318349390
STARLINK-1215,45225,53.1584,0.0001794,15.34934392,459.8884135237149,462.34233727600895,1 45225U 20012AZ  26156.15430582  .00045011  00000+0  13128-2 0  9998,2 45225  53.1584 311.0686 0001794 264.1977  95.8822 15.34934392348886
STARLINK-1221,45227,53.0633,0.0002279,15.44784774,430.458511943506,433.5625771943205,1 45227U 20012BB  26156.39536654  .00016785  00000+0  36112-3 0  9998,2 45227  53.0633 213.0718 0002279 315.6540  44.4283 15.44784774350259
STARLINK-1222,45228,53.0529,0.000191,15.54981162,400.9123438855331,403.50243544238583,1 45228U 20012BC  26156.63808803  .00032958  00000+0  48825-3 0  9998,2 45228  53.0529 279.4268 0001910   8.2827 351.8214 15.54981162349285
STARLINK-1226,45229,53.1562,0.0002623,15.43805077,433.1043239984692,436.67843868732234,1 45229U 20012BD  26156.13380823  .00076264  00000+0  16508-2 0  9991,2 45229  53.1562 307.3785 0002623 255.1269 104.9447 15.43805077348871
STARLINK-1227,45230,53.1557,0.0002822,15.43918664,432.63467594584927,436.4797605626327,1 45230U 20012BE  26156.14385267  .00069898  00000+0  15091-2 0  9992,2 45230  53.1557 307.4423 0002822 243.8638 116.2079 15.43918664348999
STARLINK-1246,45235,53.1578,0.000229,15.34746712,460.1066166060127,463.23924955536404,1 45235U 20012BK  26156.25740399  .00042179  00000+0  12387-2 0  9998,2 45235  53.1578 351.5465 0002290 189.3371 170.7590 15.34746712348390
STARLINK-1270,45237,53.0412,0.0001814,15.61811063,381.1993312997347,383.65206344634134,1 45237U 20012BM  26155.64673720  .00104005  00000+0  11692-2 0  9990,2 45237  53.0412 287.5449 0001814 282.0779  78.0031 15.61811063349193
STARLINK-1279,45360,53.0369,0.0006823,15.74464853,341.5664516271463,350.7424197202672,1 45360U 20019A   26156.80830977  .00084481  00000+0  56781-3 0  9996,2 45360  53.0369  25.2116 0006823 108.3424 251.8337 15.74464853344483
STARLINK-1301,45361,53.035,0.000101,15.7999404,329.7799376432904,331.13507373343873,1 45361U 20019B   26156.91668980 -.00346230  00000+0 -18968-2 0  9991,2 45361  53.0350  27.3163 0001010  79.7800 296.1130 15.79994040  5984
STARLINK-1262,45366,53.1542,0.000372,15.3373578,462.1326272317783,467.22368170670416,1 45366U 20019G   26156.16166393  .00056952  00000+0  17195-2 0  9992,2 45366  53.1542 118.4332 0003720  65.2703 294.8686 15.33735780343154
STARLINK-1273,45367,53.044,0.0005144,15.56876119,393.21948188182887,400.18943877621496,1 45367U 20019H   26156.12364583  .00093148  00000+0  12645-2 0  9993,2 45367  53.0440  94.8119 0005144  58.2319 301.9193 15.56876119343462
STARLINK-1277,45369,53.0422,0.0004967,15.63993069,372.7813843852364,379.491079413805,1 45369U 20019K   26156.53613110  .00110725  00000+0  11413-2 0  9996,2 45369  53.0422  86.9547 0004967  48.6014 311.5426 15.63993069343613
STARLINK-1281,45370,53.1558,0.0004467,15.34678036,458.8215491400406,464.9324176327982,1 45370U 20019L   26156.17502312  .00049515  00000+0  14538-2 0  9998,2 45370  53.1558 118.0201 0004467  61.6851 298.4601 15.34678036343169
STARLINK-1300,45374,53.1563,0.0004557,15.351686,457.3034218830717,463.536082507022,1 45374U 20019Q   26156.57859336  .00056230  00000+0  16224-2 0  9993,2 45374  53.1563 116.0413 0004557  75.3803 284.7705 15.35168600343223
STARLINK-1302,45375,53.0453,0.0005287,15.67033533,363.8303099930172,370.9630372995316,1 45375U 20019R   26156.08980171  .00059314  00000+0  54730-3 0  9993,2 45375  53.0453  85.2796 0005287  62.4219 297.7332 15.67033533343592
STARLINK-1304,45376,53.0416,0.0005362,15.62526047,376.7392904575736,383.98710607019166,1 45376U 20019S   26156.53057382  .00062196  00000+0  68557-3 0  9997,2 45376  53.0416  84.3433 0005362  70.6791 289.4802 15.62526047343648
STARLINK-1305,45377,53.0384,0.0001651,15.71132343,354.54787030564876,356.7713699496162,1 45377U 20019T   26156.05211196  .00064594  00000+0  50313-3 0  9995,2 45377  53.0384  65.4038 0001651 192.9016 167.1959 15.71132343343871
STARLINK-1319,45379,53.0374,0.0003329,15.77007803,336.68769788418376,341.15991696976926,1 45379U 20019V   26156.79117926  .00108651  00000+0  65108-3 0  9995,2 45379  53.0374  53.5334 0003329  86.9022 273.2378 15.77007803344101
STARLINK-1266,45383,53.0454,0.0001397,15.65579274,370.6303550372413,372.51622409214633,1 45383U 20019Z   26156.48852659  .00049410  00000+0  48506-3 0  9995,2 45383  53.0454  69.5640 0001397 137.5434 222.5689 15.65579274343840
STARLINK-1267,45384,53.0433,0.0006728,15.65088918,368.4408911016926,377.5251982337977,1 45384U 20019AA  26156.45553691  .00050204  00000+0  50196-3 0  9998,2 45384  53.0433  60.9421 0006728 103.8456 256.3307 15.65088918343968
STARLINK-1272,45386,53.0403,0.0007831,15.68886813,356.8051598349102,367.3616930668177,1 45386U 20019AC  26152.15222326  .00062695  00000+0  53549-3 0  9993,2 45386  53.0403  61.0495 0007831  72.9009 287.2864 15.68886813343588
STARLINK-1274,45387,53.0194,0.0007004,15.61477426,378.6528989192002,388.1244440798364,1 45387U 20019AD  26156.81827500  .00127337  00000+0  14432-2 0  9998,2 45387  53.0194  37.1030 0007004 127.3127 232.8524 15.61477426344324
STARLINK-1280,45388,53.0353,0.0001759,15.81522538,324.9550798495129,327.3136425143757,1 45388U 20019AE  26156.91668980  .00119654  00000+0  58355-3 0  9991,2 45388  53.0353  45.2555 0001759  87.2624 216.0421 15.81522538  5670
STARLINK-1283,45389,53.039,0.00032,15.71295318,353.0393258574077,357.3486576921441,1 45389U 20019AF  26156.91668980  .00069880  00000+0  53979-3 0  9994,2 45389  53.0390  36.6242 0003200 128.5857  52.5284 15.71295318  6021
STARLINK-1284,45390,53.0407,0.0004164,15.69627468,357.15719094742417,362.76868057392494,1 45390U 20019AG  26156.45483476  .00062382  00000+0  51742-3 0  9996,2 45390  53.0407  62.7699 0004164  39.9209 320.2112 15.69627468343935
STARLINK-1297,45395,53.0413,0.0006179,15.68028956,360.37525097226717,368.70785312688895,1 45395U 20019AM  26156.78568444  .00059821  00000+0  52992-3 0  9998,2 45395  53.0413  60.1443 0006179  52.2025 307.9550 15.68028956343189
STARLINK-1307,45397,53.0524,0.0002375,15.56473953,396.26210946760875,399.4807134630546,1 45397U 20019AP  26156.05359520  .00042507  00000+0  59339-3 0  9998,2 45397  53.0524  69.4159 0002375  97.8760 262.2520 15.56473953343633
STARLINK-1255,45399,53.0341,0.0004843,15.65597429,368.2522493265906,374.78996817072584,1 45399U 20019AR  26156.81164263  .00067964  00000+0  66290-3 0  9990,2 45399  53.0341  33.7503 0004843 114.1140 246.0382 15.65597429344188
STARLINK-1260,45404,53.1547,0.0005314,15.37547075,449.73516786544224,456.99568864619323,1 45404U 20019AW  26156.48303190  .00054860  00000+0  14669-2 0  9997,2 45404  53.1547  79.3374 0005314  79.2260 280.9341 15.37547075343445
STARLINK-1263,45405,53.1582,0.0004308,15.3480611,458.54994776927015,464.4429759600116,1 45405U 20019AX  26156.51405449  .00055831  00000+0  16298-2 0  9991,2 45405  53.1582  80.4031 0004308  93.4850 266.6645 15.34806110343435
STARLINK-1265,45406,53.1556,0.0004704,15.37924199,449.03557230473143,455.46159906374214,1 45406U 20019AY  26156.08604298  .00065975  00000+0  17382-2 0  9992,2 45406  53.1556  81.1982 0004704  72.1090 288.0426 15.37924199343380
STARLINK-1278,45408,53.0396,0.0006584,15.68851849,357.7457423435926,366.62139646938704,1 45408U 20019BA  26156.04889245  .00056242  00000+0  48217-3 0  9996,2 45408  53.0396  62.7280 0006584  68.6971 291.4748 15.68851849343622
STARLINK-1296,45412,53.1559,0.0005338,15.38122901,448.0145728394591,455.3060644568468,1 45412U 20019BE  26156.06109790  .00066121  00000+0  17306-2 0  9994,2 45412  53.1559  81.0108 0005338  66.2425 293.9139 15.38122901343387
STARLINK-1309,45414,53.0604,0.0005928,15.67910079,360.88510022223363,368.87962397793945,1 45414U 20019BG  26156.00364019  .00059120  00000+0  52640-3 0  9999,2 45414  53.0604  56.8660 0005928  45.7331 314.4170 15.67910079343685
